NORAD_CAT_ID,OBJECT_NAME,OBJECT_TYPE,EPOCH,MEAN_MOTION,ECCENTRICITY,INCLINATION,RA_OF_ASC_NODE,ARG_OF_PERICENTER,MEAN_ANOMALY,BSTAR,MEAN_MOTION_DOT,MEAN_MOTION_DDOT,TLE_LINE0,TLE_LINE1,TLE_LINE2,SEMIMAJOR_AXIS,PERIOD,APOGEE,PERIGEE,DECAYED
56769.0,STARLINK-5978,PAYLOAD,2024-08-18 17:45:11,14.98334576,0.0003611,70.0009,356.4585,266.9958,93.0788,2.1023e-05,1.58e-06,0.0,0 STARLINK-5978,1 56769U 23078C   24231.73971710  .00000158  00000-0  21023-4 0  9996,2 56769  70.0009 356.4585 0003611 266.9958  93.0788 14.98334576 67113,6950.179,96.107,574.553,569.534,0.0
56769.0,STARLINK-5978,PAYLOAD,2024-08-19 09:46:32,14.98327769,0.0003445,70.0013,354.7761,263.6814,96.3953,6.6978e-06,-1.3e-07,0.0,0 STARLINK-5978,1 56769U 23078C   24232.40732096 -.00000013  00000-0  66978-5 0  9993,2 56769  70.0013 354.7761 0003445 263.6814  96.3953 14.98327769 67470,6950.2,96.107,574.459,569.67,0.0
56769.0,STARLINK-5978,PAYLOAD,2024-08-19 14:34:56,14.98327729,0.0003554,70.0009,354.2706,268.7163,91.3589,-7.0471e-06,-1.77e-06,0.0,0 STARLINK-5978,1 56769U 23078C   24232.60760184 -.00000177  00000-0 -70471-5 0  9999,2 56769  70.0009 354.2706 0003554 268.7163  91.3589 14.98327729 67244,6950.2,96.107,574.535,569.595,0.0
56769.0,STARLINK-5978,PAYLOAD,2024-08-20 11:24:41,14.98330377,0.0003633,70.0007,352.0827,269.0929,90.9814,3.3271e-06,-5.3e-07,0.0,0 STARLINK-5978,1 56769U 23078C   24233.47548049 -.00000053  00000-0  33271-5 0  9998,2 56769  70.0007 352.0827 0003633 269.0929  90.9814 14.98330377 67636,6950.192,96.107,574.582,569.532,0.0
56769.0,STARLINK-5978,PAYLOAD,2024-08-20 14:36:57,14.98331259,0.000362,70.0007,351.746,268.9439,91.1305,1.4899e-05,8.5e-07,0.0,0 STARLINK-5978,1 56769U 23078C   24233.60899961  .00000085  00000-0  14899-4 0  9993,2 56769  70.0007 351.7460 0003620 268.9439  91.1305 14.98331259 67396,6950.189,96.107,574.57,569.538,0.0
56769.0,STARLINK-5978,PAYLOAD,2024-08-21 13:02:50,14.98329296,0.0003609,70.0007,349.3892,268.5184,91.5561,5.6407e-05,5.8e-06,0.0,0 STARLINK-5978,1 56769U 23078C   24234.54363966  .00000580  00000-0  56407-4 0  9999,2 56769  70.0007 349.3892 0003609 268.5184  91.5561 14.98329296 67798,6950.195,96.107,574.568,569.552,0.0
56769.0,STARLINK-5978,PAYLOAD,2024-08-21 14:38:58,14.98329531,0.0003605,70.0007,349.2209,268.4897,91.5849,5.8506e-05,6.05e-06,0.0,0 STARLINK-5978,1 56769U 23078C   24234.61039950  .00000605  00000-0  58506-4 0  9990,2 56769  70.0007 349.2209 0003605 268.4897  91.5849 14.98329531 67549,6950.194,96.107,574.565,569.554,0.0
56769.0,STARLINK-5978,PAYLOAD,2024-08-21 17:51:14,14.98330325,0.0003597,70.0007,348.8842,268.3948,91.6799,6.5447e-05,6.88e-06,0.0,0 STARLINK-5978,1 56769U 23078C   24234.74391884  .00000688  00000-0  65447-4 0  9994,2 56769  70.0007 348.8842 0003597 268.3948  91.6799 14.98330325 67563,6950.192,96.107,574.557,569.557,0.0
